COSMOS 2433 (720)       
1 32275C 07052A   23112.99979167  .00000000  00000-0  00000-0 0  1126
2 32275  66.0491 354.3948 0001178 302.0046 192.5196  2.13104280    10
COSMOS 2432 (719)       
1 32276C 07052B   23112.99979167  .00000000  00000-0  00000-0 0  1127
2 32276  66.0632 354.5010 0010684 338.7700 103.2102  2.13103476    17
COSMOS 2434 (721)       
1 32393C 07065A   23112.99979167  .00000000  00000-0  00000-0 0  1121
2 32393  64.3456 230.8741 0003181  86.2492 298.9582  2.13103151    10
COSMOS 2436 (723)       
1 32395C 07065C   23112.99979167  .00000000  00000-0  00000-0 0  1123
2 32395  64.3542 230.9343 0015717   2.9772 157.8470  2.13102932    16
COSMOS 2456 (730)       
1 36111C 09070A   23112.99979167 -.00000000  00000-0  00000-0 0  1122
2 36111  64.4453 110.4199 0006371 303.3289 243.0189  2.13099456    17
COSMOS 2457 (733)       
1 36112C 09070B   23112.99979167 -.00000000  00000-0  00000-0 0  1123
2 36112  64.4291 110.2884 0003769 201.9235 114.1645  2.13101446    17
COSMOS 2460 (732)       
1 36402C 10007C   23112.99979167  .00000000  00000-0  00000-0 0  1126
2 36402  65.9145 353.1327 0002519  37.9410 265.0083  2.13106358    16
COSMOS 2476 (744)       
1 37867C 11064A   23112.99979167 -.00000000  00000-0  00000-0 0  1127
2 37867  64.7280 111.8959 0023880 241.7830 212.7503  2.13101967    11
COSMOS 2477 (745)       
1 37868C 11064B   23112.99979167 -.00000000  00000-0  00000-0 0  1128
2 37868  64.7354 111.9640 0021183 243.1299  29.3395  2.13101825    15
COSMOS 2475 (743)       
1 37869C 11064C   23112.99979167 -.00000000  00000-0  00000-0 0  1129
2 37869  64.7426 111.9750 0026077 257.6623 333.1082  2.13102183    13
COSMOS 2485 (747)       
1 39155C 13019A   23112.99979167 -.00000000  00000-0  00000-0 0  1121
2 39155  64.8894 112.3909 0024108 237.9101 260.9817  2.13102122    15
COSMOS 2492 (754)       
1 39620C 14012A   23112.99979167  .00000000  00000-0  00000-0 0  1121
2 39620  65.7991 352.7704 0013408 332.0164 201.1643  2.13103421    17
COSMOS 2500 (755)       
1 40001C 14032A   23112.99979167  .00000000  00000-0  00000-0 0  1128
2 40001  65.7378 352.6081 0004126 194.6730 196.5613  2.13106114    12
COSMOS 2501 (702K)      
1 40315C 14075A   23112.99979167  .00000000  00000-0  00000-0 0  1123
2 40315  63.6498 230.3462 0018550 206.6313 353.8473  2.13101477    11
COSMOS 2514 (751)       
1 41330C 16008A   23112.99979167  .00000000  00000-0  00000-0 0  1129
2 41330  65.5359 352.2230 0007880 209.5892   5.7664  2.13102904    12
COSMOS 2522 (752)       
1 42939C 17055A   23112.99979167  .00000000  00000-0  00000-0 0  1128
2 42939  64.1102 231.1950 0007087 236.1224 100.0129  2.13101933    13
COSMOS 2527 (756)       
1 43508C 18053A   23112.99979167 -.00000000  00000-0  00000-0 0  1121
2 43508  65.0513 112.4555 0009905 244.3415 123.7229  2.13102545    11
COSMOS 2529 (757)       
1 43687C 18086A   23112.99979167  .00000000  00000-0  00000-0 0  1124
2 43687  64.3254 231.5945 0008578 263.2899  28.3271  2.13102169    19
COSMOS 2534 (758)       
1 44299C 19030A   23112.99979167  .00000000  00000-0  00000-0 0  1124
2 44299  64.3978 231.5084 0011021 286.3193 139.6197  2.13102144    12
COSMOS 2544 (759)       
1 44850C 19088A   23112.99979167 -.00000000  00000-0  00000-0 0  1121
2 44850  65.0370 112.3012 0015165 263.0238 148.2472  2.13102359    11
COSMOS 2545 (760)       
1 45358C 20018A   23112.99979167  .00000000  00000-0  00000-0 0  1129
2 45358  64.8758 352.5777 0007116 255.9020   4.4878  2.13102730    10
COSMOS 2547 (705K)      
1 46805C 20075A   23112.99979167  .00000000  00000-0  00000-0 0  1120
2 46805  64.6243 231.0245 0006643 239.2074 235.4581  2.13103171    11
COSMOS 2557 (706K)      
1 52984C 20075A   23112.99979167  .00000000  00000-0  00000-0 0  1125
2 52984  64.7874 354.7515 0011525 289.6232  61.2489  2.13101917    18
COSMOS 2559 (707K)      
1 54031C 22130A   23112.99979167  .00000000  00000-0  00000-0 0  1124
2 54031  64.7583 354.8838 0004557 226.8995 168.9458  2.13101135    18
COSMOS 2564 (761)       
1 54377C 22161A   23112.99979167  .00000000  00000-0  00000-0 0  1121
2 54377  64.7648 231.0533 0008596 216.0543  30.7515  2.13102173    11
